[{"OBJECT_NAME":"STARLINK-5677","OBJECT_ID":"2023-015Q","EPOCH":"2026-03-09T02:10:17.621472","MEAN_MOTION":15.02454137,"ECCENTRICITY":2.059e-5,"INCLINATION":43.0037,"RA_OF_ASC_NODE":329.2658,"ARG_OF_PERICENTER":294.5683,"MEAN_ANOMALY":65.5138,"EPHEMERIS_TYPE":0,"CLASSIFICATION_TYPE":"U","NORAD_CAT_ID":55463,"ELEMENT_SET_NO":999,"REV_AT_EPOCH":17066,"BSTAR":0.0012072966,"MEAN_MOTION_DOT":0.00016107,"MEAN_MOTION_DDOT":0},{"OBJECT_NAME":"FENGYUN 1C DEB","OBJECT_ID":"1999-025BNP","EPOCH":"2026-03-08T20:32:05.282880","MEAN_MOTION":15.24866573,"ECCENTRICITY":0.00982022,"INCLINATION":98.3915,"RA_OF_ASC_NODE":217.6412,"ARG_OF_PERICENTER":158.7529,"MEAN_ANOMALY":201.7829,"EPHEMERIS_TYPE":0,"CLASSIFICATION_TYPE":"U","NORAD_CAT_ID":31281,"ELEMENT_SET_NO":999,"REV_AT_EPOCH":1008,"BSTAR":0.0025465872,"MEAN_MOTION_DOT":0.00073171,"MEAN_MOTION_DDOT":0}]
